BIRKELAND               
1 55015U 23001G   26183.28425116  .00010646  00000+0  26559-3 0  9997
2 55015  97.3340 251.2945 0007724  61.9330 298.2697 15.40346076194670
ION SCV-008             
1 55051U 23001AU  26183.29344862  .00007299  00000+0  26326-3 0  9998
2 55051  97.5718 279.8658 0013651 323.6260  36.4050 15.28750470193648
ION SCV-007             
1 55060U 23001BD  26183.16412772  .00000512  00000+0  78732-4 0  9990
2 55060  97.9000 245.8817 0010963 289.6581  70.3446 14.77566895188465
HUYGENS                 
1 55093U 23001CN  26183.28432730  .00010216  00000+0  25481-3 0  9999
2 55093  97.3243 250.5048 0009927  38.9043 321.2916 15.40343396194691
SHARJAHSAT-1            
1 55104U 23001CZ  26183.29047627  .00023594  00000+0  42669-3 0  9990
2 55104  97.3166 252.2709 0006026  60.4515 299.7336 15.49668446194838
HORUS 1                 
1 55690U 23025A   26183.26104095  .00006480  00000+0  27505-3 0  9993
2 55690  97.3459 257.5385 0002383 132.6076 227.5363 15.23420777186348
HORUS 2                 
1 55844U 23032A   26183.29503062  .00006915  00000+0  29188-3 0  9994
2 55844  97.3532 258.3946 0002240  91.8550 268.2944 15.23585809183788
GLOBAL-19               
1 55982U 23041B   26183.09766623  .00016619  00000+0  43492-3 0  9995
2 55982  42.0013 114.9146 0007532 123.0000 237.1564 15.38377845184226
ION SCV-010             
1 56192U 23054Q   26183.23924241  .00005647  00000+0  21974-3 0  9991
2 56192  97.3761  72.5483 0013776 144.9533 215.2615 15.26325063178494
TELEOS-2                
1 56310U 23057C   26183.15257654  .00006294  00000+0  48105-3 0  9998
2 56310   9.9881  95.2078 0000849 265.5477  94.4640 14.96401706175042
SNIPE 4                 
1 56744U 23072B   26183.26310675  .00022660  00000+0  51673-3 0  9990
2 56744  97.5232  29.7510 0003852 263.5831  96.4978 15.42915082172433
SNIPE 2                 
1 56745U 23072C   26183.26121747  .00030321  00000+0  58833-3 0  9999
2 56745  97.5225  32.8993 0002919 303.6482  56.4489 15.47613608172579
2023-072G               
1 56749U 23072G   26183.28960050  .00032641  00000+0  55374-3 0  9997
2 56749  97.4878  31.7501 0001525 284.0650  76.0432 15.51438336172800
GEISAT PRECURSOR        
1 56934U 23084C   26183.27990772  .00009152  00000+0  27317-3 0  9996
2 56934  97.6245 324.7327 0004052 291.3282  68.7528 15.34857700169842
BLACKJACK ACES-3        
1 56950U 23084U   26183.26000411  .00006615  00000+0  32295-3 0  9997
2 56950  97.6235 318.5671 0001273 348.6921  11.4284 15.18616897169453
BLACKJACK ACES-2        
1 56955U 23084Z   26183.26592465  .00008114  00000+0  39551-3 0  9995
2 56955  97.6232 318.6579 0000744 140.6460 219.4828 15.18596641169462
BLACKJACK ACES-1        
1 56956U 23084AA  26183.25382408  .00007989  00000+0  38898-3 0  9991
2 56956  97.6222 318.4179 0001378 127.6992 232.4366 15.18642200119184
ION SCV-011             
1 56957U 23084AB  26183.25006062  .00006022  00000+0  21691-3 0  9991
2 56957  98.1374  11.9259 0006870 355.7137   4.4041 15.28989718168113
GHOST-3                 
1 56958U 23084AC  26183.28850787  .00021285  00000+0  40286-3 0  9995
2 56958  97.6235 332.6760 0006072 232.2193 127.8507 15.48390374170351
AFR-1                   
1 56964U 23084AJ  26183.28826889  .00005267  00000+0  19152-3 0  9998
2 56964  97.6297 320.3447 0009006 287.7918  72.2338 15.28681618169537
METEOR-M2 3             
1 57166U 23091A   26183.27512149  .00000011  00000+0  23577-4 0  9990
2 57166  98.6074 237.9442 0005000 119.2565 240.9115 14.24048073156665
UMKA 1 (RS40S)          
1 57172U 23091G   26183.29199806  .00007349  00000+0  33372-3 0  9994
2 57172  97.5041 241.9319 0014078  71.0489 289.2271 15.20995200166308
2023-091H               
1 57173U 23091H   26183.23721532  .00013259  00000+0  47286-3 0  9992
2 57173  97.5040 246.5533 0010772  67.3047 292.9330 15.28967664166603
2023-091J               
1 57174U 23091J   26183.25763834  .00004099  00000+0  22863-3 0  9992
2 57174  97.5043 236.1395 0014883  96.3079 263.9849 15.14033869165914
CUBEBEL 2 (EU11S)       
1 57175U 23091K   26183.23276691  .00015060  00000+0  52734-3 0  9991
2 57175  97.5043 246.5869 0010745  68.6596 291.5790 15.29538080166605
SITRO-AIS 5 (KATYS)     
1 57176U 23091L   26183.24692598  .00013772  00000+0  47843-3 0  9994
2 57176  97.5051 247.2920 0011978  56.3331 303.9050 15.29805221166646
ZORKIY-2M 1             
1 57177U 23091M   26183.27743027  .00007943  00000+0  35922-3 0  9990
2 57177  97.5080 242.1958 0014515  68.3371 291.9409 15.21103610166291
CUBESX-HSE 3 (RS42S)    
1 57178U 23091N   26183.26785197  .00015737  00000+0  51692-3 0  9996
2 57178  97.5083 249.0485 0011038  46.9388 313.2775 15.31599062166737
MONITOR-3 (RS58S)       
1 57180U 23091Q   26183.26047063  .00012685  00000+0  46376-3 0  9994
2 57180  97.5074 246.8191 0012298  53.4010 306.8359 15.28148382166594
MONITOR-4 (RS57S)       
1 57182U 23091S   26183.23869180  .00012201  00000+0  44504-3 0  9990
2 57182  97.5069 246.7692 0012322  53.8732 306.3646 15.28233604166594
