OBJECT_NAME,OBJECT_ID,EPOCH,MEAN_MOTION,ECCENTRICITY,INCLINATION,RA_OF_ASC_NODE,ARG_OF_PERICENTER,MEAN_ANOMALY,EPHEMERIS_TYPE,CLASSIFICATION_TYPE,NORAD_CAT_ID,ELEMENT_SET_NO,REV_AT_EPOCH,BSTAR,MEAN_MOTION_DOT,MEAN_MOTION_DDOT
BIRKELAND,2023-001G,2026-07-02T06:49:19.300224,15.40346076,.00077245,97.3340,251.2945,61.9330,298.2697,0,U,55015,999,19467,.26559105E-3,.10646E-3,0
ION SCV-008,2023-001AU,2026-07-02T07:02:33.960768,15.28750470,.00136513,97.5718,279.8658,323.6260,36.4050,0,U,55051,999,19364,.263261E-3,.7299E-4,0
ION SCV-007,2023-001BD,2026-07-02T03:56:20.635008,14.77566895,.00109632,97.9000,245.8817,289.6581,70.3446,0,U,55060,999,18846,.78731582E-4,.512E-5,0
HUYGENS,2023-001CN,2026-07-02T06:49:25.878720,15.40343396,.00099277,97.3243,250.5048,38.9043,321.2916,0,U,55093,999,19469,.25480982E-3,.10216E-3,0
SHARJAHSAT-1,2023-001CZ,2026-07-02T06:58:17.149728,15.49668446,.00060265,97.3166,252.2709,60.4515,299.7336,0,U,55104,999,19483,.42668667E-3,.23594E-3,0
HORUS 1,2023-025A,2026-07-02T06:15:53.938080,15.23420777,.00023839,97.3459,257.5385,132.6076,227.5363,0,U,55690,999,18634,.27504575E-3,.648E-4,0
HORUS 2,2023-032A,2026-07-02T07:04:50.645568,15.23585809,.00022407,97.3532,258.3946,91.8550,268.2944,0,U,55844,999,18378,.2918772E-3,.6915E-4,0
GLOBAL-19,2023-041B,2026-07-02T02:20:38.362272,15.38377845,.00075324,42.0013,114.9146,123.0000,237.1564,0,U,55982,999,18422,.43492484E-3,.16619E-3,0
ION SCV-010,2023-054Q,2026-07-02T05:44:30.544224,15.26325063,.00137769,97.3761,72.5483,144.9533,215.2615,0,U,56192,999,17849,.21974463E-3,.5647E-4,0
TELEOS-2,2023-057C,2026-07-02T03:39:42.613056,14.96401706,.0000849,9.9881,95.2078,265.5477,94.4640,0,U,56310,999,17504,.48104937E-3,.6294E-4,0
SNIPE 4,2023-072B,2026-07-02T06:18:52.423200,15.42915082,.00038528,97.5232,29.7510,263.5831,96.4978,0,U,56744,999,17243,.516728E-3,.2266E-3,0
SNIPE 2,2023-072C,2026-07-02T06:16:09.189408,15.47613608,.00029199,97.5225,32.8993,303.6482,56.4489,0,U,56745,999,17257,.58832676E-3,.30321E-3,0
2023-072G,2023-072G,2026-07-02T06:57:01.483200,15.51438336,.00015252,97.4878,31.7501,284.0650,76.0432,0,U,56749,999,17280,.55373515E-3,.32641E-3,0
GEISAT PRECURSOR,2023-084C,2026-07-02T06:43:04.027008,15.34857700,.00040522,97.6245,324.7327,291.3282,68.7528,0,U,56934,999,16984,.27316838E-3,.9152E-4,0
BLACKJACK ACES-3,2023-084U,2026-07-02T06:14:24.355104,15.18616897,.00012734,97.6235,318.5671,348.6921,11.4284,0,U,56950,999,16945,.32294864E-3,.6615E-4,0
BLACKJACK ACES-2,2023-084Z,2026-07-02T06:22:55.889760,15.18596641,.00007449,97.6232,318.6579,140.6460,219.4828,0,U,56955,999,16946,.39551286E-3,.8114E-4,0
BLACKJACK ACES-1,2023-084AA,2026-07-02T06:05:30.400512,15.18642200,.00013786,97.6222,318.4179,127.6992,232.4366,0,U,56956,999,11918,.38897814E-3,.7989E-4,0
ION SCV-011,2023-084AB,2026-07-02T06:00:05.237568,15.28989718,.00068701,98.1374,11.9259,355.7137,4.4041,0,U,56957,999,16811,.21691204E-3,.6022E-4,0
GHOST-3,2023-084AC,2026-07-02T06:55:27.079968,15.48390374,.00060724,97.6235,332.6760,232.2193,127.8507,0,U,56958,999,17035,.40286062E-3,.21285E-3,0
AFR-1,2023-084AJ,2026-07-02T06:55:06.432096,15.28681618,.00090066,97.6297,320.3447,287.7918,72.2338,0,U,56964,999,16953,.19152211E-3,.5267E-4,0
METEOR-M2 3,2023-091A,2026-07-02T06:36:10.496736,14.24048073,.00050009,98.6074,237.9442,119.2565,240.9115,0,U,57166,999,15666,.23577475E-4,.11E-6,0
UMKA 1 (RS40S),2023-091G,2026-07-02T07:00:28.632384,15.20995200,.00140786,97.5041,241.9319,71.0489,289.2271,0,U,57172,999,16630,.33371616E-3,.7349E-4,0
2023-091H,2023-091H,2026-07-02T05:41:35.403648,15.28967664,.00107728,97.5040,246.5533,67.3047,292.9330,0,U,57173,999,16660,.4728627E-3,.13259E-3,0
2023-091J,2023-091J,2026-07-02T06:10:59.952576,15.14033869,.00148833,97.5043,236.1395,96.3079,263.9849,0,U,57174,999,16591,.22862866E-3,.4099E-4,0
CUBEBEL 2 (EU11S),2023-091K,2026-07-02T05:35:11.061024,15.29538080,.0010745,97.5043,246.5869,68.6596,291.5790,0,U,57175,999,16660,.52733554E-3,.1506E-3,0
SITRO-AIS 5 (KATYS),2023-091L,2026-07-02T05:55:34.404672,15.29805221,.00119782,97.5051,247.2920,56.3331,303.9050,0,U,57176,999,16664,.47842757E-3,.13772E-3,0
ZORKIY-2M 1,2023-091M,2026-07-02T06:39:29.975328,15.21103610,.00145152,97.5080,242.1958,68.3371,291.9409,0,U,57177,999,16629,.35921554E-3,.7943E-4,0
CUBESX-HSE 3 (RS42S),2023-091N,2026-07-02T06:25:42.410208,15.31599062,.00110381,97.5083,249.0485,46.9388,313.2775,0,U,57178,999,16673,.51691665E-3,.15737E-3,0
MONITOR-3 (RS58S),2023-091Q,2026-07-02T06:15:04.662432,15.28148382,.00122984,97.5074,246.8191,53.4010,306.8359,0,U,57180,999,16659,.46375966E-3,.12685E-3,0
MONITOR-4 (RS57S),2023-091S,2026-07-02T05:43:42.971520,15.28233604,.00123222,97.5069,246.7692,53.8732,306.3646,0,U,57182,999,16659,.44504061E-3,.12201E-3,0
